start=new Date('2021-12-11T00:00:00.000Z').valueOf();
sats=[{"BSTAR":"0.00046536000000","REV_AT_EPOCH":"368","TIME_SYSTEM":"UTC","MEAN_ANOMALY":"297.5152","PERIAPSIS":"348.432","CENTER_NAME":"EARTH","OBJECT_ID":"2021-104AN","COUNTRY_CODE":"US","REF_FRAME":"TEME","PERIOD":"91.535","GP_ID":"191460571","INCLINATION":"53.2192","DECAY_DATE":null,"MEAN_ELEMENT_THEORY":"SGP4","TLE_LINE1":"1 49444U 21104AN  21344.91667824  .00065107  00000-0  46536-3 0  9996","MEAN_MOTION_DOT":"0.00065107","SITE":"AFETR","EPHEMERIS_TYPE":"0","CLASSIFICATION_TYPE":"U","OBJECT_NAME":"STARLINK-3126","MEAN_MOTION":"15.73166781","APOAPSIS":"351.278","RCS_SIZE":"LARGE","MEAN_MOTION_DDOT":"0.0000000000000","NORAD_CAT_ID":"49444","ECCENTRICITY":"0.00021150","ARG_OF_PERICENTER":"29.3327","FILE":"3237005","EPOCH":"2021-12-10T22:00:00.999936","RA_OF_ASC_NODE":"357.4858","TLE_LINE2":"2 49444  53.2192 357.4858 0002115  29.3327 297.5152 15.73166781  3687","OBJECT_TYPE":"PAYLOAD","LAUNCH_DATE":"2021-11-13","SEMIMAJOR_AXIS":"6727.990","ELEMENT_SET_NO":"999"},{"EPHEMERIS_TYPE":"0","SITE":"AFETR","CLASSIFICATION_TYPE":"U","APOAPSIS":"351.201","RCS_SIZE":"LARGE","MEAN_MOTION_DDOT":"0.0000000000000","OBJECT_NAME":"STARLINK-3122","MEAN_MOTION":"15.73186221","ARG_OF_PERICENTER":"22.9378","FILE":"3237005","EPOCH":"2021-12-10T22:00:00.999936","NORAD_CAT_ID":"49445","ECCENTRICITY":"0.00020830","SEMIMAJOR_AXIS":"6727.934","ELEMENT_SET_NO":"999","RA_OF_ASC_NODE":"357.4738","OBJECT_TYPE":"PAYLOAD","TLE_LINE2":"2 49445  53.2191 357.4738 0002083  22.9378 309.5744 15.73186221  3685","LAUNCH_DATE":"2021-11-13","MEAN_ANOMALY":"309.5744","BSTAR":"0.00047662000000","TIME_SYSTEM":"UTC","REV_AT_EPOCH":"368","PERIAPSIS":"348.398","GP_ID":"191461125","INCLINATION":"53.2191","CENTER_NAME":"EARTH","OBJECT_ID":"2021-104AP","COUNTRY_CODE":"US","PERIOD":"91.534","REF_FRAME":"TEME","MEAN_ELEMENT_THEORY":"SGP4","TLE_LINE1":"1 49445U 21104AP  21344.91667824  .00066767  00000-0  47662-3 0  9991","MEAN_MOTION_DOT":"0.00066767","DECAY_DATE":null},{"PERIAPSIS":"348.333","MEAN_ANOMALY":"302.5305","BSTAR":"0.00046203000000","TIME_SYSTEM":"UTC","REV_AT_EPOCH":"368","TLE_LINE1":"1 49446U 21104AQ  21344.91667824  .00064654  00000-0  46203-3 0  9995","MEAN_ELEMENT_THEORY":"SGP4","MEAN_MOTION_DOT":"0.00064654","DECAY_DATE":null,"GP_ID":"191460201","INCLINATION":"53.2191","COUNTRY_CODE":"US","OBJECT_ID":"2021-104AQ","CENTER_NAME":"EARTH","REF_FRAME":"TEME","PERIOD":"91.535","APOAPSIS":"351.337","MEAN_MOTION_DDOT":"0.0000000000000","RCS_SIZE":"LARGE","OBJECT_NAME":"STARLINK-3099","MEAN_MOTION":"15.73173735","EPHEMERIS_TYPE":"0","SITE":"AFETR","CLASSIFICATION_TYPE":"U","SEMIMAJOR_AXIS":"6727.970","ELEMENT_SET_NO":"999","TLE_LINE2":"2 49446  53.2191 357.4834 0002233  25.2134 302.5305 15.73173735  3688","OBJECT_TYPE":"PAYLOAD","LAUNCH_DATE":"2021-11-13","RA_OF_ASC_NODE":"357.4834","ARG_OF_PERICENTER":"25.2134","EPOCH":"2021-12-10T22:00:00.999936","FILE":"3237005","ECCENTRICITY":"0.00022330","NORAD_CAT_ID":"49446"},{"ARG_OF_PERICENTER":"26.9624","EPOCH":"2021-12-11T00:00:00.999648","FILE":"3236985","ECCENTRICITY":"0.00022550","NORAD_CAT_ID":"49447","SEMIMAJOR_AXIS":"6727.953","ELEMENT_SET_NO":"999","TLE_LINE2":"2 49447  53.2192 357.0578 0002255  26.9624  60.4951 15.73179723  5599","LAUNCH_DATE":"2021-11-13","OBJECT_TYPE":"PAYLOAD","RA_OF_ASC_NODE":"357.0578","SITE":"AFETR","EPHEMERIS_TYPE":"0","CLASSIFICATION_TYPE":"U","APOAPSIS":"351.335","MEAN_MOTION_DDOT":"0.0000000000000","RCS_SIZE":"LARGE","OBJECT_NAME":"STARLINK-3115","MEAN_MOTION":"15.73179723","GP_ID":"191436621","INCLINATION":"53.2192","COUNTRY_CODE":"US","OBJECT_ID":"2021-104AR","CENTER_NAME":"EARTH","PERIOD":"91.534","REF_FRAME":"TEME","TLE_LINE1":"1 49447U 21104AR  21345.00001157  .00051435  00000-0  36895-3 0  9997","MEAN_ELEMENT_THEORY":"SGP4","MEAN_MOTION_DOT":"0.00051435","DECAY_DATE":null,"MEAN_ANOMALY":"60.4951","BSTAR":"0.00036895000000","REV_AT_EPOCH":"559","TIME_SYSTEM":"UTC","PERIAPSIS":"348.301"},{"MEAN_ELEMENT_THEORY":"SGP4","TLE_LINE1":"1 49448U 21104AS  21344.91667824  .00056803  00000-0  40722-3 0  9994","MEAN_MOTION_DOT":"0.00056803","DECAY_DATE":null,"GP_ID":"191460941","INCLINATION":"53.2192","OBJECT_ID":"2021-104AS","CENTER_NAME":"EARTH","COUNTRY_CODE":"US","REF_FRAME":"TEME","PERIOD":"91.536","PERIAPSIS":"348.519","MEAN_ANOMALY":"307.6631","BSTAR":"0.00040722000000","TIME_SYSTEM":"UTC","REV_AT_EPOCH":"368","SEMIMAJOR_AXIS":"6728.031","ELEMENT_SET_NO":"999","RA_OF_ASC_NODE":"357.4758","LAUNCH_DATE":"2021-11-13","TLE_LINE2":"2 49448  53.2192 357.4758 0002047  23.9346 307.6631 15.73152340  3686","OBJECT_TYPE":"PAYLOAD","ARG_OF_PERICENTER":"23.9346","FILE":"3237005","EPOCH":"2021-12-10T22:00:00.999936","NORAD_CAT_ID":"49448","ECCENTRICITY":"0.00020470","APOAPSIS":"351.273","RCS_SIZE":"LARGE","MEAN_MOTION_DDOT":"0.0000000000000","OBJECT_NAME":"STARLINK-3097","MEAN_MOTION":"15.73152340","SITE":"AFETR","EPHEMERIS_TYPE":"0","CLASSIFICATION_TYPE":"U"},{"ECCENTRICITY":"0.00023090","NORAD_CAT_ID":"49449","ARG_OF_PERICENTER":"31.0341","EPOCH":"2021-12-11T00:00:00.999648","FILE":"3236985","TLE_LINE2":"2 49449  53.2195 357.0546 0002309  31.0341  57.4644 15.73155009  5600","LAUNCH_DATE":"2021-11-13","OBJECT_TYPE":"PAYLOAD","RA_OF_ASC_NODE":"357.0546","SEMIMAJOR_AXIS":"6728.023","ELEMENT_SET_NO":"999","EPHEMERIS_TYPE":"0","SITE":"AFETR","CLASSIFICATION_TYPE":"U","OBJECT_NAME":"STARLINK-3137","MEAN_MOTION":"15.73155009","APOAPSIS":"351.442","MEAN_MOTION_DDOT":"0.0000000000000","RCS_SIZE":"LARGE","COUNTRY_CODE":"US","OBJECT_ID":"2021-104AT","CENTER_NAME":"EARTH","PERIOD":"91.536","REF_FRAME":"TEME","INCLINATION":"53.2195","GP_ID":"191436163","DECAY_DATE":null,"TLE_LINE1":"1 49449U 21104AT  21345.00001157  .00047465  00000-0  34133-3 0  9990","MEAN_ELEMENT_THEORY":"SGP4","MEAN_MOTION_DOT":"0.00047465","BSTAR":"0.00034133000000","REV_AT_EPOCH":"560","TIME_SYSTEM":"UTC","MEAN_ANOMALY":"57.4644","PERIAPSIS":"348.335"},{"SEMIMAJOR_AXIS":"6728.011","ELEMENT_SET_NO":"999","OBJECT_TYPE":"PAYLOAD","TLE_LINE2":"2 49450  53.2196 357.0592 0001917  32.3359  54.2905 15.73159367  5595","LAUNCH_DATE":"2021-11-13","RA_OF_ASC_NODE":"357.0592","ARG_OF_PERICENTER":"32.3359","EPOCH":"2021-12-11T00:00:00.999648","FILE":"3236985","ECCENTRICITY":"0.00019170","NORAD_CAT_ID":"49450","APOAPSIS":"351.166","MEAN_MOTION_DDOT":"0.0000000000000","RCS_SIZE":"LARGE","OBJECT_NAME":"STARLINK-3127","MEAN_MOTION":"15.73159367","SITE":"AFETR","EPHEMERIS_TYPE":"0","CLASSIFICATION_TYPE":"U","TLE_LINE1":"1 49450U 21104AU  21345.00001157  .00048272  00000-0  34697-3 0  9994","MEAN_ELEMENT_THEORY":"SGP4","MEAN_MOTION_DOT":"0.00048272","DECAY_DATE":null,"INCLINATION":"53.2196","GP_ID":"191436159","COUNTRY_CODE":"US","OBJECT_ID":"2021-104AU","CENTER_NAME":"EARTH","PERIOD":"91.536","REF_FRAME":"TEME","PERIAPSIS":"348.586","MEAN_ANOMALY":"54.2905","BSTAR":"0.00034697000000","REV_AT_EPOCH":"559","TIME_SYSTEM":"UTC"},{"COUNTRY_CODE":"US","OBJECT_ID":"2021-104AV","CENTER_NAME":"EARTH","REF_FRAME":"TEME","PERIOD":"91.535","GP_ID":"191460386","INCLINATION":"53.2197","DECAY_DATE":null,"TLE_LINE1":"1 49451U 21104AV  21344.91667824  .00033917  00000-0  24549-3 0  9998","MEAN_ELEMENT_THEORY":"SGP4","MEAN_MOTION_DOT":"0.00033917","BSTAR":"0.00024549000000","REV_AT_EPOCH":"368","TIME_SYSTEM":"UTC","MEAN_ANOMALY":"314.2375","PERIAPSIS":"348.347","ECCENTRICITY":"0.00022630","NORAD_CAT_ID":"49451","ARG_OF_PERICENTER":"23.0017","EPOCH":"2021-12-10T22:00:00.999936","FILE":"3237005","TLE_LINE2":"2 49451  53.2197 357.4675 0002263  23.0017 314.2375 15.73161646  3687","LAUNCH_DATE":"2021-11-13","OBJECT_TYPE":"PAYLOAD","RA_OF_ASC_NODE":"357.4675","SEMIMAJOR_AXIS":"6728.005","ELEMENT_SET_NO":"999","SITE":"AFETR","EPHEMERIS_TYPE":"0","CLASSIFICATION_TYPE":"U","OBJECT_NAME":"STARLINK-3125","MEAN_MOTION":"15.73161646","APOAPSIS":"351.392","MEAN_MOTION_DDOT":"0.0000000000000","RCS_SIZE":"LARGE"},{"DECAY_DATE":null,"MEAN_MOTION_DOT":"-0.00029489","MEAN_ELEMENT_THEORY":"SGP4","TLE_LINE1":"1 49452U 21104AW  21344.91667824 -.00029489  00000-0 -20617-3 0  9992","REF_FRAME":"TEME","PERIOD":"91.532","CENTER_NAME":"EARTH","OBJECT_ID":"2021-104AW","COUNTRY_CODE":"US","GP_ID":"191460572","INCLINATION":"53.2191","PERIAPSIS":"348.197","REV_AT_EPOCH":"368","TIME_SYSTEM":"UTC","BSTAR":"-0.00020617000000","MEAN_ANOMALY":"318.5454","RA_OF_ASC_NODE":"357.4214","LAUNCH_DATE":"2021-11-13","TLE_LINE2":"2 49452  53.2191 357.4214 0002217  40.3111 318.5454 15.73225166  3680","OBJECT_TYPE":"PAYLOAD","ELEMENT_SET_NO":"999","SEMIMAJOR_AXIS":"6727.823","NORAD_CAT_ID":"49452","ECCENTRICITY":"0.00022170","FILE":"3237005","EPOCH":"2021-12-10T22:00:00.999936","ARG_OF_PERICENTER":"40.3111","MEAN_MOTION":"15.73225166","OBJECT_NAME":"STARLINK-3150","RCS_SIZE":"LARGE","MEAN_MOTION_DDOT":"0.0000000000000","APOAPSIS":"351.180","CLASSIFICATION_TYPE":"U","EPHEMERIS_TYPE":"0","SITE":"AFETR"},{"EPHEMERIS_TYPE":"0","SITE":"AFETR","CLASSIFICATION_TYPE":"U","APOAPSIS":"351.456","RCS_SIZE":"LARGE","MEAN_MOTION_DDOT":"0.0000000000000","OBJECT_NAME":"STARLINK-3129","MEAN_MOTION":"15.73153924","ARG_OF_PERICENTER":"30.7507","FILE":"3237005","EPOCH":"2021-12-10T22:00:00.999936","NORAD_CAT_ID":"49453","ECCENTRICITY":"0.00023260","SEMIMAJOR_AXIS":"6728.027","ELEMENT_SET_NO":"999","RA_OF_ASC_NODE":"357.4603","OBJECT_TYPE":"PAYLOAD","TLE_LINE2":"2 49453  53.2194 357.4603 0002326  30.7507 309.2437 15.73153924  3689","LAUNCH_DATE":"2021-11-13","MEAN_ANOMALY":"309.2437","BSTAR":"0.00046227000000","REV_AT_EPOCH":"368","TIME_SYSTEM":"UTC","PERIAPSIS":"348.327","INCLINATION":"53.2194","GP_ID":"191461126","OBJECT_ID":"2021-104AX","CENTER_NAME":"EARTH","COUNTRY_CODE":"US","REF_FRAME":"TEME","PERIOD":"91.536","MEAN_ELEMENT_THEORY":"SGP4","TLE_LINE1":"1 49453U 21104AX  21344.91667824  .00064633  00000-0  46227-3 0  9996","MEAN_MOTION_DOT":"0.00064633","DECAY_DATE":null}];
